[{"OBJECT_NAME":"VSP ROSE","OBJECT_ID":"2024-043AC","EPOCH":"2026-03-09T21:48:06.922944","MEAN_MOTION":15.27746075,"ECCENTRICITY":0.00099339,"INCLINATION":97.5443,"RA_OF_ASC_NODE":203.927,"ARG_OF_PERICENTER":232.2702,"MEAN_ANOMALY":127.7637,"EPHEMERIS_TYPE":0,"CLASSIFICATION_TYPE":"U","NORAD_CAT_ID":59124,"ELEMENT_SET_NO":999,"REV_AT_EPOCH":11182,"BSTAR":0.00025731354,"MEAN_MOTION_DOT":6.907e-5,"MEAN_MOTION_DDOT":0},{"OBJECT_NAME":"STARLINK-31748","OBJECT_ID":"2024-080M","EPOCH":"2026-03-09T22:35:20.130144","MEAN_MOTION":15.2757242,"ECCENTRICITY":0.00013055,"INCLINATION":43.0046,"RA_OF_ASC_NODE":32.8124,"ARG_OF_PERICENTER":246.2155,"MEAN_ANOMALY":113.856,"EPHEMERIS_TYPE":0,"CLASSIFICATION_TYPE":"U","NORAD_CAT_ID":59612,"ELEMENT_SET_NO":999,"REV_AT_EPOCH":10578,"BSTAR":-0.0001177294,"MEAN_MOTION_DOT":-3.5e-5,"MEAN_MOTION_DDOT":0}]
